ONEWEB-0275             
1 48993U 21060AC  25099.59078086  .00000196  00000+0  47899-3 0  9995
2 48993  87.9047 315.2152 0001786  81.2820 278.8513 13.16594658183792
ONEWEB-0276             
1 48994U 21060AD  25099.32005278 -.00000097  00000+0 -28778-3 0  9997
2 48994  87.9044 315.2659 0001594  77.6791 282.4518 13.16595100183783
ONEWEB-0277             
1 48995U 21060AE  25099.56069071  .00000034  00000+0  55092-4 0  9994
2 48995  87.9043 315.2550 0001830  71.0045 289.1284 13.16594974183799
ONEWEB-0278             
1 48996U 21060AF  25099.32320109 -.00000030  00000+0 -11198-3 0  9997
2 48996  87.9044 315.2620 0001547  90.3050 269.8258 13.16594896183917
ONEWEB-0279             
1 48997U 21060AG  25099.55910674  .00000070  00000+0  14847-3 0  9991
2 48997  87.9042 315.2114 0001919  74.9575 285.1768 13.16594596182561
ONEWEB-0280             
1 48998U 21060AH  25099.57414804  .00000177  00000+0  42936-3 0  9996
2 48998  87.9043 315.2138 0001442  77.6389 282.4903 13.16592683182503
ONEWEB-0281             
1 48999U 21060AJ  25099.57969691  .00000147  00000+0  35040-3 0  9991
2 48999  87.9041 315.2113 0001940  86.4059 273.7294 13.16594144182577
ONEWEB-0282             
1 49000U 21060AK  25099.60977099 -.00000034  00000+0 -12270-3 0  9997
2 49000  87.9046 315.2217 0001581  79.1532 280.9777 13.16594399182553
